[{"OBJECT_NAME":"HAWK-11A","OBJECT_ID":"2024-247F","EPOCH":"2026-03-09T12:17:43.893312","MEAN_MOTION":15.28849427,"ECCENTRICITY":0.00054663,"INCLINATION":44.9941,"RA_OF_ASC_NODE":114.3328,"ARG_OF_PERICENTER":327.3713,"MEAN_ANOMALY":32.6832,"EPHEMERIS_TYPE":0,"CLASSIFICATION_TYPE":"U","NORAD_CAT_ID":62382,"ELEMENT_SET_NO":999,"REV_AT_EPOCH":6774,"BSTAR":0.00034106017,"MEAN_MOTION_DOT":9.457e-5,"MEAN_MOTION_DDOT":0},{"OBJECT_NAME":"STARLINK-34194","OBJECT_ID":"2025-113K","EPOCH":"2026-03-09T10:44:17.675520","MEAN_MOTION":15.30197387,"ECCENTRICITY":0.00015582,"INCLINATION":53.1604,"RA_OF_ASC_NODE":91.8602,"ARG_OF_PERICENTER":73.4243,"MEAN_ANOMALY":286.6929,"EPHEMERIS_TYPE":0,"CLASSIFICATION_TYPE":"U","NORAD_CAT_ID":64179,"ELEMENT_SET_NO":999,"REV_AT_EPOCH":4503,"BSTAR":0.0011181958,"MEAN_MOTION_DOT":0.00032903,"MEAN_MOTION_DDOT":0}]
